OBJECT_NAME,OBJECT_ID,EPOCH,MEAN_MOTION,ECCENTRICITY,INCLINATION,RA_OF_ASC_NODE,ARG_OF_PERICENTER,MEAN_ANOMALY,EPHEMERIS_TYPE,CLASSIFICATION_TYPE,NORAD_CAT_ID,ELEMENT_SET_NO,REV_AT_EPOCH,BSTAR,MEAN_MOTION_DOT,MEAN_MOTION_DDOT
ONEWEB-0428,2022-012H,2026-06-09T09:00:49.440672,13.10371542,.0001784,87.8837,37.8300,79.9415,280.1913,0,U,51629,999,20826,-.16448E-2,-.561E-5,0
ONEWEB-0431,2022-012J,2026-06-09T10:07:35.425056,13.10371621,.0001404,87.8840,37.8131,98.1949,261.9337,0,U,51630,999,20832,.16316E-2,.582E-5,0
ONEWEB-0434,2022-012K,2026-06-09T09:34:30.811008,13.10375255,.0002408,87.8847,37.8428,74.9097,285.2297,0,U,51631,999,20830,.62455E-4,.34E-6,0
ONEWEB-0435,2022-012L,2026-06-09T09:46:14.912256,13.10373010,.0001479,87.8840,37.8280,78.0049,282.1244,0,U,51632,999,20829,.11406E-2,.411E-5,0
ONEWEB-0436,2022-012M,2026-06-09T11:12:04.882752,13.17648387,.000163,87.9144,7.3812,86.0024,274.1293,0,U,51633,999,21266,-.11053E-3,-.3E-6,0
ONEWEB-0438,2022-012N,2026-06-09T09:22:21.043776,13.10374771,.0002012,87.8841,37.8342,80.6157,279.5198,0,U,51634,999,20832,-.11386E-2,-.385E-5,0
ONEWEB-0439,2022-012P,2026-06-09T02:07:18.956640,13.10375734,.00018322,87.8842,37.8819,77.6376,282.4957,0,U,51635,999,20826,-.50216379E-3,-.163E-5,0
ONEWEB-0442,2022-012Q,2026-06-09T07:22:27.660576,13.17648137,.0002438,87.9139,7.4462,86.0282,274.1128,0,U,51636,999,21263,-.19222E-3,-.62E-6,0
ONEWEB-0443,2022-012R,2026-06-09T11:29:05.489664,13.17648849,.0001884,87.9138,7.4132,76.2594,283.8747,0,U,51637,999,21270,.57294E-4,.35E-6,0
ONEWEB-0444,2022-012S,2026-06-09T09:12:46.934784,13.10375224,.0001924,87.8840,37.8212,76.2982,283.8359,0,U,51638,999,20831,-.14464E-2,-.492E-5,0
ONEWEB-0445,2022-012T,2026-06-09T09:43:53.181696,13.10374817,.0001781,87.8851,37.8049,88.0132,272.1199,0,U,51639,999,20832,.11534E-2,.415E-5,0
ONEWEB-0446,2022-012U,2026-06-09T09:10:23.134080,13.10373230,.0001859,87.8843,37.8390,86.2275,273.9065,0,U,51640,999,20830,-.18853E-2,-.645E-5,0
ONEWEB-0448,2022-012V,2026-06-09T09:17:34.373760,13.10374402,.0001751,87.8842,37.8347,78.7103,281.4221,0,U,51641,999,20827,-.14401E-2,-.49E-5,0
ONEWEB-0449,2022-012W,2026-06-09T09:24:44.618112,13.10375384,.00022,87.8843,37.8187,76.5068,283.6304,0,U,51642,999,20828,-.73745E-3,-.245E-5,0
ONEWEB-0451,2022-012X,2026-06-09T11:07:14.392128,13.17648524,.0002061,87.9147,7.3792,83.5661,276.5705,0,U,51643,999,21264,-.99302E-5,.9E-7,0
ONEWEB-0452,2022-012Y,2026-06-09T07:26:05.754048,13.17648186,.0001981,87.9137,7.4473,78.3906,281.7448,0,U,51644,999,21263,.15571E-3,.73E-6,0
ONEWEB-0456,2022-012AA,2026-06-09T09:39:04.377600,13.10374097,.000166,87.8854,37.8034,78.1193,282.0121,0,U,51646,999,20832,.62673E-3,.231E-5,0
ONEWEB-0457,2022-012AB,2026-06-09T09:05:23.991360,13.10371722,.000212,87.8836,37.8270,90.6029,269.5342,0,U,51647,999,20832,-.16146E-2,-.551E-5,0
ONEWEB-0458,2022-012AC,2026-06-09T09:36:42.316992,13.10374828,.0001915,87.8851,37.8098,75.5075,284.6265,0,U,51648,999,20828,.37679E-3,.144E-5,0
ONEWEB-0461,2022-012AD,2026-06-09T11:36:22.670208,13.17647200,.0001901,87.9147,7.3891,89.6364,270.4986,0,U,51649,999,21287,.13471E-3,.65E-6,0
ONEWEB-0463,2022-012AE,2026-06-09T07:30:58.071168,13.17648096,.0001943,87.9136,7.4464,91.0606,269.0748,0,U,51650,999,21263,.15925E-4,.19E-6,0
ONEWEB-0464,2022-012AF,2026-06-09T09:31:55.240896,13.10375650,.0001682,87.8840,37.8329,73.0186,287.1126,0,U,51651,999,20830,-.21568E-3,-.63E-6,0
ONEWEB-0468,2022-012AG,2026-06-09T09:41:29.540832,13.10375208,.000163,87.8841,37.8257,71.6918,288.4386,0,U,51652,999,20828,.77801E-3,.284E-5,0
ONEWEB-0473,2022-012AH,2026-06-09T09:19:57.370944,13.10374714,.0001847,87.8842,37.8303,77.1968,282.9366,0,U,51653,999,20828,-.13985E-2,-.476E-5,0
ONEWEB-0474,2022-012AJ,2026-06-09T09:07:59.671200,13.10372508,.0001717,87.8850,37.8154,71.7379,288.3935,0,U,51654,999,20827,-.17526E-2,-.599E-5,0
ONEWEB-0475,2022-012AK,2026-06-09T11:26:40.202880,13.17648338,.0001729,87.9139,7.4067,65.8080,294.3232,0,U,51655,999,21267,.21508E-3,.96E-6,0
ONEWEB-0490,2022-138A,2026-06-09T11:27:00.004896,13.19725170,.0001658,87.9171,306.5027,97.8833,262.2488,0,U,54113,999,17581,.27019E-3,.121E-5,0
ONEWEB-0492,2022-138B,2026-06-09T08:25:03.472032,13.19725585,.0001721,87.9163,306.5303,104.6217,255.5106,0,U,54114,999,17580,.34429E-3,.151E-5,0
ONEWEB-0495,2022-138C,2026-06-09T11:31:32.975328,13.19724592,.000116,87.9164,306.5066,96.4433,263.6832,0,U,54115,999,17580,.10742E-3,.56E-6,0
ONEWEB-0497,2022-138D,2026-06-09T08:11:23.598240,13.19724932,.0001762,87.9167,306.5259,98.7113,261.4219,0,U,54116,999,17577,.23234E-3,.106E-5,0
ONEWEB-0499,2022-138E,2026-06-09T09:36:42.099264,13.19726817,.00016,87.9163,306.5238,92.5058,267.6258,0,U,54117,999,17579,-.25891E-5,.12E-6,0
