ONEWEB-0428             
1 51629U 22012H   26160.37557223 -.00000561  00000+0 -16448-2 0  9997
2 51629  87.8837  37.8300 0001784  79.9415 280.1913 13.10371542208261
ONEWEB-0431             
1 51630U 22012J   26160.42193779  .00000582  00000+0  16316-2 0  9992
2 51630  87.8840  37.8131 0001404  98.1949 261.9337 13.10371621208325
ONEWEB-0434             
1 51631U 22012K   26160.39896772  .00000034  00000+0  62455-4 0  9991
2 51631  87.8847  37.8428 0002408  74.9097 285.2297 13.10375255208302
ONEWEB-0435             
1 51632U 22012L   26160.40711704  .00000411  00000+0  11406-2 0  9992
2 51632  87.8840  37.8280 0001479  78.0049 282.1244 13.10373010208294
ONEWEB-0436             
1 51633U 22012M   26160.46672318 -.00000030  00000+0 -11053-3 0  9994
2 51633  87.9144   7.3812 0001630  86.0024 274.1293 13.17648387212667
ONEWEB-0438             
1 51634U 22012N   26160.39052134 -.00000385  00000+0 -11386-2 0  9996
2 51634  87.8841  37.8342 0002012  80.6157 279.5198 13.10374771208326
ONEWEB-0439             
1 51635U 22012P   26160.08841385 -.00000163  00000+0 -50216-3 0  9997
2 51635  87.8842  37.8819 0001832  77.6376 282.4957 13.10375734208264
ONEWEB-0442             
1 51636U 22012Q   26160.30726459 -.00000062  00000+0 -19222-3 0  9997
2 51636  87.9139   7.4462 0002438  86.0282 274.1128 13.17648137212636
ONEWEB-0443             
1 51637U 22012R   26160.47853576  .00000035  00000+0  57294-4 0  9997
2 51637  87.9138   7.4132 0001884  76.2594 283.8747 13.17648849212703
ONEWEB-0444             
1 51638U 22012S   26160.38387656 -.00000492  00000+0 -14464-2 0  9998
2 51638  87.8840  37.8212 0001924  76.2982 283.8359 13.10375224208313
ONEWEB-0445             
1 51639U 22012T   26160.40547664  .00000415  00000+0  11534-2 0  9997
2 51639  87.8851  37.8049 0001781  88.0132 272.1199 13.10374817208324
ONEWEB-0446             
1 51640U 22012U   26160.38221220 -.00000645  00000+0 -18853-2 0  9991
2 51640  87.8843  37.8390 0001859  86.2275 273.9065 13.10373230208307
ONEWEB-0448             
1 51641U 22012V   26160.38720340 -.00000490  00000+0 -14401-2 0  9992
2 51641  87.8842  37.8347 0001751  78.7103 281.4221 13.10374402208272
ONEWEB-0449             
1 51642U 22012W   26160.39218308 -.00000245  00000+0 -73745-3 0  9995
2 51642  87.8843  37.8187 0002200  76.5068 283.6304 13.10375384208289
ONEWEB-0451             
1 51643U 22012X   26160.46336102  .00000009  00000+0 -99302-5 0  9993
2 51643  87.9147   7.3792 0002061  83.5661 276.5705 13.17648524212641
ONEWEB-0452             
1 51644U 22012Y   26160.30978882  .00000073  00000+0  15571-3 0  9998
2 51644  87.9137   7.4473 0001981  78.3906 281.7448 13.17648186212637
ONEWEB-0456             
1 51646U 22012AA  26160.40213400  .00000231  00000+0  62673-3 0  9990
2 51646  87.8854  37.8034 0001660  78.1193 282.0121 13.10374097208327
ONEWEB-0457             
1 51647U 22012AB  26160.37874990 -.00000551  00000+0 -16146-2 0  9994
2 51647  87.8836  37.8270 0002120  90.6029 269.5342 13.10371722208326
ONEWEB-0458             
1 51648U 22012AC  26160.40048978  .00000144  00000+0  37679-3 0  9999
2 51648  87.8851  37.8098 0001915  75.5075 284.6265 13.10374828208283
ONEWEB-0461             
1 51649U 22012AD  26160.48359572  .00000065  00000+0  13471-3 0  9999
2 51649  87.9147   7.3891 0001901  89.6364 270.4986 13.17647200212875
ONEWEB-0463             
1 51650U 22012AE  26160.31317212  .00000019  00000+0  15925-4 0  9994
2 51650  87.9136   7.4464 0001943  91.0606 269.0748 13.17648096212632
ONEWEB-0464             
1 51651U 22012AF  26160.39716714 -.00000063  00000+0 -21568-3 0  9993
2 51651  87.8840  37.8329 0001682  73.0186 287.1126 13.10375650208300
ONEWEB-0468             
1 51652U 22012AG  26160.40381413  .00000284  00000+0  77801-3 0  9994
2 51652  87.8841  37.8257 0001630  71.6918 288.4386 13.10375208208280
ONEWEB-0473             
1 51653U 22012AH  26160.38885846 -.00000476  00000+0 -13985-2 0  9998
2 51653  87.8842  37.8303 0001847  77.1968 282.9366 13.10374714208288
ONEWEB-0474             
1 51654U 22012AJ  26160.38055175 -.00000599  00000+0 -17526-2 0  9994
2 51654  87.8850  37.8154 0001717  71.7379 288.3935 13.10372508208274
ONEWEB-0475             
1 51655U 22012AK  26160.47685420  .00000096  00000+0  21508-3 0  9993
2 51655  87.9139   7.4067 0001729  65.8080 294.3232 13.17648338212678
ONEWEB-0490             
1 54113U 22138A   26160.47708339  .00000121  00000+0  27019-3 0  9991
2 54113  87.9171 306.5027 0001658  97.8833 262.2488 13.19725170175810
ONEWEB-0492             
1 54114U 22138B   26160.35073463  .00000151  00000+0  34429-3 0  9998
2 54114  87.9163 306.5303 0001721 104.6217 255.5106 13.19725585175804
ONEWEB-0495             
1 54115U 22138C   26160.48024277  .00000056  00000+0  10742-3 0  9998
2 54115  87.9164 306.5066 0001160  96.4433 263.6832 13.19724592175800
ONEWEB-0497             
1 54116U 22138D   26160.34124535  .00000106  00000+0  23234-3 0  9998
2 54116  87.9167 306.5259 0001762  98.7113 261.4219 13.19724932175775
ONEWEB-0499             
1 54117U 22138E   26160.40048726  .00000012  00000+0 -25891-5 0  9993
2 54117  87.9163 306.5238 0001600  92.5058 267.6258 13.19726817175797
